CTC1_L_00297001-01
1 10000U 24106DK  26075.70033565  .00000000  00000+0  00000-0 0  9992
2 10000  45.0000   0.0000 0000000   0.0000   0.0000 14.70334635    19
CTC1_L_00297001-02
1 10001U 26253O   26075.70033565  .00000000  00000+0  00000-0 0  9998
2 10001  45.0000   0.0000 0000000   0.0000  90.0000 14.70334635    19
CTC1_L_00297001-03
1 10002U 24878QW  26075.70033565  .00000000  00000+0  00000-0 0  9990
2 10002  45.0000   0.0000 0000000   0.0000 180.0000 14.70334635    10
CTC1_L_00297001-04
1 10003U 25910EJ  26075.70033565  .00000000  00000+0  00000-0 0  9999
2 10003  45.0000   0.0000 0000000   0.0000 270.0000 14.70334635    11
CTC1_L_00297002-01
1 10004U 24912W   26075.70033565  .00000000  00000+0  00000-0 0  9991
2 10004  45.0000  12.0000 0000000   0.0000  12.0000 14.70334635    19
CTC1_L_00297002-02
1 10005U 26600DD  26075.70033565  .00000000  00000+0  00000-0 0  9998
2 10005  45.0000  12.0000 0000000   0.0000 102.0000 14.70334635    10
CTC1_L_00297002-03
1 10006U 26559BY  26075.70033565  .00000000  00000+0  00000-0 0  9992
2 10006  45.0000  12.0000 0000000   0.0000 192.0000 14.70334635    10
CTC1_L_00297002-04
1 10007U 26301LB  26075.70033565  .00000000  00000+0  00000-0 0  9998
2 10007  45.0000  12.0000 0000000   0.0000 282.0000 14.70334635    11
CTC1_L_00297003-01
1 10008U 22574KT  26075.70033565  .00000000  00000+0  00000-0 0  9997
2 10008  45.0000  24.0000 0000000   0.0000  24.0000 14.70334635    19
CTC1_L_00297003-02
1 10009U 22319FV  26075.70033565  .00000000  00000+0  00000-0 0  9995
2 10009  45.0000  24.0000 0000000   0.0000 114.0000 14.70334635    10
CTC1_L_00297003-03
1 10010U 23289MM  26075.70033565  .00000000  00000+0  00000-0 0  9994
2 10010  45.0000  24.0000 0000000   0.0000 204.0000 14.70334635    12
CTC1_L_00297003-04
1 10011U 24958JR  26075.70033565  .00000000  00000+0  00000-0 0  9999
2 10011  45.0000  24.0000 0000000   0.0000 294.0000 14.70334635    12
CTC1_L_00297004-01
1 10012U 26989OQ  26075.70033565  .00000000  00000+0  00000-0 0  9996
2 10012  45.0000  36.0000 0000000   0.0000  36.0000 14.70334635    10
CTC1_L_00297004-02
1 10013U 23814JI  26075.70033565  .00000000  00000+0  00000-0 0  9991
2 10013  45.0000  36.0000 0000000   0.0000 126.0000 14.70334635    11
CTC1_L_00297004-03
1 10014U 26049KH  26075.70033565  .00000000  00000+0  00000-0 0  9995
2 10014  45.0000  36.0000 0000000   0.0000 216.0000 14.70334635    12
CTC1_L_00297004-04
1 10015U 24351EM  26075.70033565  .00000000  00000+0  00000-0 0  9990
2 10015  45.0000  36.0000 0000000   0.0000 306.0000 14.70334635    13
CTC1_L_00297005-01
1 10016U 24756MX  26075.70033565  .00000000  00000+0  00000-0 0  9990
2 10016  45.0000  48.0000 0000000   0.0000  48.0000 14.70334635    10
CTC1_L_00297005-02
1 10017U 26043RW  26075.70033565  .00000000  00000+0  00000-0 0  9992
2 10017  45.0000  48.0000 0000000   0.0000 138.0000 14.70334635    11
CTC1_L_00297005-03
1 10018U 23688LX  26075.70033565  .00000000  00000+0  00000-0 0  9995
2 10018  45.0000  48.0000 0000000   0.0000 228.0000 14.70334635    12
CTC1_L_00297005-04
1 10019U 26971GQ  26075.70033565  .00000000  00000+0  00000-0 0  9994
2 10019  45.0000  48.0000 0000000   0.0000 318.0000 14.70334635    13
CTC1_L_00297006-01
1 10020U 23618CR  26075.70033565  .00000000  00000+0  00000-0 0  9991
2 10020  45.0000  60.0000 0000000   0.0000  60.0000 14.70334635    13
CTC1_L_00297006-02
1 10021U 24837QP  26075.70033565  .00000000  00000+0  00000-0 0  9996
2 10021  45.0000  60.0000 0000000   0.0000 150.0000 14.70334635    14
CTC1_L_00297006-03
1 10022U 22208HW  26075.70033565  .00000000  00000+0  00000-0 0  9997
2 10022  45.0000  60.0000 0000000   0.0000 240.0000 14.70334635    15
CTC1_L_00297006-04
1 10023U 22278RH  26075.70033565  .00000000  00000+0  00000-0 0  9995
2 10023  45.0000  60.0000 0000000   0.0000 330.0000 14.70334635    16
CTC1_L_00297007-01
1 10024U 24398AQ  26075.70033565  .00000000  00000+0  00000-0 0  9991
2 10024  45.0000  72.0000 0000000   0.0000  72.0000 14.70334635    13
CTC1_L_00297007-02
1 10025U 25973V   26075.70033565  .00000000  00000+0  00000-0 0  9992
2 10025  45.0000  72.0000 0000000   0.0000 162.0000 14.70334635    14
CTC1_L_00297007-03
1 10026U 23176XH  26075.70033565  .00000000  00000+0  00000-0 0  9996
2 10026  45.0000  72.0000 0000000   0.0000 252.0000 14.70334635    15
CTC1_L_00297007-04
1 10027U 25344FK  26075.70033565  .00000000  00000+0  00000-0 0  9996
2 10027  45.0000  72.0000 0000000   0.0000 342.0000 14.70334635    16
CTC1_L_00297008-01
1 10028U 22927CK  26075.70033565  .00000000  00000+0  00000-0 0  9991
2 10028  45.0000  84.0000 0000000   0.0000  84.0000 14.70334635    13
CTC1_L_00297008-02
1 10029U 23440RX  26075.70033565  .00000000  00000+0  00000-0 0  9993
2 10029  45.0000  84.0000 0000000   0.0000 174.0000 14.70334635    14
CTC1_L_00297008-03
1 10030U 23459LP  26075.70033565  .00000000  00000+0  00000-0 0  9995
2 10030  45.0000  84.0000 0000000   0.0000 264.0000 14.70334635    16
CTC1_L_00297008-04
1 10031U 22854LD  26075.70033565  .00000000  00000+0  00000-0 0  9994
2 10031  45.0000  84.0000 0000000   0.0000 354.0000 14.70334635    17
CTC1_L_00297009-01
1 10032U 22690JR  26075.70033565  .00000000  00000+0  00000-0 0  9993
2 10032  45.0000  96.0000 0000000   0.0000  96.0000 14.70334635    14
CTC1_L_00297009-02
1 10033U 24442SY  26075.70033565  .00000000  00000+0  00000-0 0  9991
2 10033  45.0000  96.0000 0000000   0.0000 186.0000 14.70334635    15
CTC1_L_00297009-03
1 10034U 22661IA  26075.70033565  .00000000  00000+0  00000-0 0  9993
2 10034  45.0000  96.0000 0000000   0.0000 276.0000 14.70334635    16
CTC1_L_00297009-04
1 10035U 25637EV  26075.70033565  .00000000  00000+0  00000-0 0  9990
2 10035  45.0000  96.0000 0000000   0.0000   6.0000 14.70334635    18
CTC1_L_00297010-01
1 10036U 25256JB  26075.70033565  .00000000  00000+0  00000-0 0  9998
2 10036  45.0000 108.0000 0000000   0.0000 108.0000 14.70334635    16
CTC1_L_00297010-02
1 10037U 24212KM  26075.70033565  .00000000  00000+0  00000-0 0  9990
2 10037  45.0000 108.0000 0000000   0.0000 198.0000 14.70334635    16
CTC1_L_00297010-03
1 10038U 26667AL  26075.70033565  .00000000  00000+0  00000-0 0  9997
2 10038  45.0000 108.0000 0000000   0.0000 288.0000 14.70334635    17
CTC1_L_00297010-04
1 10039U 23423QZ  26075.70033565  .00000000  00000+0  00000-0 0  9995
2 10039  45.0000 108.0000 0000000   0.0000  18.0000 14.70334635    19
CTC1_L_00297011-01
1 10040U 24361IQ  26075.70033565  .00000000  00000+0  00000-0 0  9999
2 10040  45.0000 120.0000 0000000   0.0000 120.0000 14.70334635    19
CTC1_L_00297011-02
1 10041U 23591MO  26075.70033565  .00000000  00000+0  00000-0 0  9994
2 10041  45.0000 120.0000 0000000   0.0000 210.0000 14.70334635    10
CTC1_L_00297011-03
1 10042U 24545QG  26075.70033565  .00000000  00000+0  00000-0 0  9995
2 10042  45.0000 120.0000 0000000   0.0000 300.0000 14.70334635    11
CTC1_L_00297011-04
1 10043U 24809XS  26075.70033565  .00000000  00000+0  00000-0 0  9999
2 10043  45.0000 120.0000 0000000   0.0000  30.0000 14.70334635    12
CTC1_L_00297012-01
1 10044U 22970CM  26075.70033565  .00000000  00000+0  00000-0 0  9997
2 10044  45.0000 132.0000 0000000   0.0000 132.0000 14.70334635    19
CTC1_L_00297012-02
1 10045U 25230UQ  26075.70033565  .00000000  00000+0  00000-0 0  9990
2 10045  45.0000 132.0000 0000000   0.0000 222.0000 14.70334635    10
CTC1_L_00297012-03
1 10046U 23013QL  26075.70033565  .00000000  00000+0  00000-0 0  9998
2 10046  45.0000 132.0000 0000000   0.0000 312.0000 14.70334635    11
CTC1_L_00297012-04
1 10047U 24644FS  26075.70033565  .00000000  00000+0  00000-0 0  9990
2 10047  45.0000 132.0000 0000000   0.0000  42.0000 14.70334635    12
CTC1_L_00297013-01
1 10048U 25297AS  26075.70033565  .00000000  00000+0  00000-0 0  9996
2 10048  45.0000 144.0000 0000000   0.0000 144.0000 14.70334635    19
CTC1_L_00297013-02
1 10049U 25909CE  26075.70033565  .00000000  00000+0  00000-0 0  9997
2 10049  45.0000 144.0000 0000000   0.0000 234.0000 14.70334635    10
CTC1_L_00297013-03
1 10050U 23968RH  26075.70033565  .00000000  00000+0  00000-0 0  9992
2 10050  45.0000 144.0000 0000000   0.0000 324.0000 14.70334635    12
CTC1_L_00297013-04
1 10051U 25541OA  26075.70033565  .00000000  00000+0  00000-0 0  9992
2 10051  45.0000 144.0000 0000000   0.0000  54.0000 14.70334635    13
CTC1_L_00297014-01
1 10052U 22604TU  26075.70033565  .00000000  00000+0  00000-0 0  9990
2 10052  45.0000 156.0000 0000000   0.0000 156.0000 14.70334635    10
CTC1_L_00297014-02
1 10053U 24049VG  26075.70033565  .00000000  00000+0  00000-0 0  9996
2 10053  45.0000 156.0000 0000000   0.0000 246.0000 14.70334635    11
CTC1_L_00297014-03
1 10054U 22778HI  26075.70033565  .00000000  00000+0  00000-0 0  9994
2 10054  45.0000 156.0000 0000000   0.0000 336.0000 14.70334635    12
CTC1_L_00297014-04
1 10055U 23586KH  26075.70033565  .00000000  00000+0  00000-0 0  9993
2 10055  45.0000 156.0000 0000000   0.0000  66.0000 14.70334635    13
CTC1_L_00297015-01
1 10056U 25521HD  26075.70033565  .00000000  00000+0  00000-0 0  9995
2 10056  45.0000 168.0000 0000000   0.0000 168.0000 14.70334635    10
CTC1_L_00297015-02
1 10057U 24326WR  26075.70033565  .00000000  00000+0  00000-0 0  9998
2 10057  45.0000 168.0000 0000000   0.0000 258.0000 14.70334635    11
CTC1_L_00297015-03
1 10058U 23328CF  26075.70033565  .00000000  00000+0  00000-0 0  9990
2 10058  45.0000 168.0000 0000000   0.0000 348.0000 14.70334635    12
CTC1_L_00297015-04
1 10059U 22248UT  26075.70033565  .00000000  00000+0  00000-0 0  9991
2 10059  45.0000 168.0000 0000000   0.0000  78.0000 14.70334635    13
CTC1_L_00297016-01
1 10060U 26994RS  26075.70033565  .00000000  00000+0  00000-0 0  9995
2 10060  45.0000 180.0000 0000000   0.0000 180.0000 14.70334635    13
CTC1_L_00297016-02
1 10061U 25810FH  26075.70033565  .00000000  00000+0  00000-0 0  9992
2 10061  45.0000 180.0000 0000000   0.0000 270.0000 14.70334635    14
